CTC2_L_00025001-01
1 58337U 22166AJ  26070.40842593  .00000000  00000+0  00000-0 0  9992
2 58337  65.0000   0.0000 0000000   0.0000   0.0000 15.69614517    15
CTC2_L_00025001-02
1 58338U 22732HU  26070.40842593  .00000000  00000+0  00000-0 0  9992
2 58338  65.0000   0.0000 0000000   0.0000  90.0000 15.69614517    15
CTC2_L_00025001-03
1 58339U 24529BX  26070.40842593  .00000000  00000+0  00000-0 0  9999
2 58339  65.0000   0.0000 0000000   0.0000 180.0000 15.69614517    16
CTC2_L_00025001-04
1 58340U 23417DI  26070.40842593  .00000000  00000+0  00000-0 0  9996
2 58340  65.0000   0.0000 0000000   0.0000 270.0000 15.69614517    18
CTC2_L_00025002-01
1 58341U 25480IZ  26070.40842593  .00000000  00000+0  00000-0 0  9999
2 58341  65.0000  12.0000 0000000   0.0000  12.0000 15.69614517    16
CTC2_L_00025002-02
1 58342U 26063RV  26070.40842593  .00000000  00000+0  00000-0 0  9998
2 58342  65.0000  12.0000 0000000   0.0000 102.0000 15.69614517    17
CTC2_L_00025002-03
1 58343U 25612ZA  26070.40842593  .00000000  00000+0  00000-0 0  9998
2 58343  65.0000  12.0000 0000000   0.0000 192.0000 15.69614517    17
CTC2_L_00025002-04
1 58344U 22933IK  26070.40842593  .00000000  00000+0  00000-0 0  9992
2 58344  65.0000  12.0000 0000000   0.0000 282.0000 15.69614517    18
CTC2_L_00025003-01
1 58345U 25267DZ  26070.40842593  .00000000  00000+0  00000-0 0  9996
2 58345  65.0000  24.0000 0000000   0.0000  24.0000 15.69614517    16
CTC2_L_00025003-02
1 58346U 26813BA  26070.40842593  .00000000  00000+0  00000-0 0  9995
2 58346  65.0000  24.0000 0000000   0.0000 114.0000 15.69614517    17
CTC2_L_00025003-03
1 58347U 23127QS  26070.40842593  .00000000  00000+0  00000-0 0  9991
2 58347  65.0000  24.0000 0000000   0.0000 204.0000 15.69614517    18
CTC2_L_00025003-04
1 58348U 23467FP  26070.40842593  .00000000  00000+0  00000-0 0  9999
2 58348  65.0000  24.0000 0000000   0.0000 294.0000 15.69614517    18
CTC2_L_00025004-01
1 58349U 25082LQ  26070.40842593  .00000000  00000+0  00000-0 0  9995
2 58349  65.0000  36.0000 0000000   0.0000  36.0000 15.69614517    16
CTC2_L_00025004-02
1 58350U 22128IV  26070.40842593  .00000000  00000+0  00000-0 0  9995
2 58350  65.0000  36.0000 0000000   0.0000 126.0000 15.69614517    18
CTC2_L_00025004-03
1 58351U 23760OW  26070.40842593  .00000000  00000+0  00000-0 0  9999
2 58351  65.0000  36.0000 0000000   0.0000 216.0000 15.69614517    19
CTC2_L_00025004-04
1 58352U 26244XJ  26070.40842593  .00000000  00000+0  00000-0 0  9990
2 58352  65.0000  36.0000 0000000   0.0000 306.0000 15.69614517    10
CTC2_L_00025005-01
1 58353U 25569JX  26070.40842593  .00000000  00000+0  00000-0 0  9990
2 58353  65.0000  48.0000 0000000   0.0000  48.0000 15.69614517    17
CTC2_L_00025005-02
1 58354U 24520TP  26070.40842593  .00000000  00000+0  00000-0 0  9997
2 58354  65.0000  48.0000 0000000   0.0000 138.0000 15.69614517    18
CTC2_L_00025005-03
1 58355U 22616KC  26070.40842593  .00000000  00000+0  00000-0 0  9992
2 58355  65.0000  48.0000 0000000   0.0000 228.0000 15.69614517    19
CTC2_L_00025005-04
1 58356U 23258RB  26070.40842593  .00000000  00000+0  00000-0 0  9996
2 58356  65.0000  48.0000 0000000   0.0000 318.0000 15.69614517    10
CTC2_L_00025006-01
1 58357U 24959XP  26070.40842593  .00000000  00000+0  00000-0 0  9996
2 58357  65.0000  60.0000 0000000   0.0000  60.0000 15.69614517    19
CTC2_L_00025006-02
1 58358U 22517SS  26070.40842593  .00000000  00000+0  00000-0 0  9995
2 58358  65.0000  60.0000 0000000   0.0000 150.0000 15.69614517    10
CTC2_L_00025006-03
1 58359U 23252LE  26070.40842593  .00000000  00000+0  00000-0 0  9993
2 58359  65.0000  60.0000 0000000   0.0000 240.0000 15.69614517    11
CTC2_L_00025006-04
1 58360U 26093C   26070.40842593  .00000000  00000+0  00000-0 0  9991
2 58360  65.0000  60.0000 0000000   0.0000 330.0000 15.69614517    13
CTC2_L_00025007-01
1 58361U 22902TS  26070.40842593  .00000000  00000+0  00000-0 0  9997
2 58361  65.0000  72.0000 0000000   0.0000  72.0000 15.69614517    10
CTC2_L_00025007-02
1 58362U 22886KL  26070.40842593  .00000000  00000+0  00000-0 0  9999
2 58362  65.0000  72.0000 0000000   0.0000 162.0000 15.69614517    11
CTC2_L_00025007-03
1 58363U 25568WJ  26070.40842593  .00000000  00000+0  00000-0 0  9990
2 58363  65.0000  72.0000 0000000   0.0000 252.0000 15.69614517    12
CTC2_L_00025007-04
1 58364U 24350LW  26070.40842593  .00000000  00000+0  00000-0 0  9999
2 58364  65.0000  72.0000 0000000   0.0000 342.0000 15.69614517    13
CTC2_L_00025008-01
1 58365U 25888RW  26070.40842593  .00000000  00000+0  00000-0 0  9997
2 58365  65.0000  84.0000 0000000   0.0000  84.0000 15.69614517    10
CTC2_L_00025008-02
1 58366U 22289NR  26070.40842593  .00000000  00000+0  00000-0 0  9990
2 58366  65.0000  84.0000 0000000   0.0000 174.0000 15.69614517    11
CTC2_L_00025008-03
1 58367U 25446DD  26070.40842593  .00000000  00000+0  00000-0 0  9999
2 58367  65.0000  84.0000 0000000   0.0000 264.0000 15.69614517    12
CTC2_L_00025008-04
1 58368U 23230KR  26070.40842593  .00000000  00000+0  00000-0 0  9999
2 58368  65.0000  84.0000 0000000   0.0000 354.0000 15.69614517    13
CTC2_L_00025009-01
1 58369U 25574BH  26070.40842593  .00000000  00000+0  00000-0 0  9993
2 58369  65.0000  96.0000 0000000   0.0000  96.0000 15.69614517    10
CTC2_L_00025009-02
1 58370U 25510IP  26070.40842593  .00000000  00000+0  00000-0 0  9995
2 58370  65.0000  96.0000 0000000   0.0000 186.0000 15.69614517    12
CTC2_L_00025009-03
1 58371U 26347YI  26070.40842593  .00000000  00000+0  00000-0 0  9995
2 58371  65.0000  96.0000 0000000   0.0000 276.0000 15.69614517    13
CTC2_L_00025009-04
1 58372U 22211AY  26070.40842593  .00000000  00000+0  00000-0 0  9992
2 58372  65.0000  96.0000 0000000   0.0000   6.0000 15.69614517    15
CTC2_L_00025010-01
1 58373U 23045AF  26070.40842593  .00000000  00000+0  00000-0 0  9999
2 58373  65.0000 108.0000 0000000   0.0000 108.0000 15.69614517    13
CTC2_L_00025010-02
1 58374U 26475NI  26070.40842593  .00000000  00000+0  00000-0 0  9990
2 58374  65.0000 108.0000 0000000   0.0000 198.0000 15.69614517    13
CTC2_L_00025010-03
1 58375U 25058AK  26070.40842593  .00000000  00000+0  00000-0 0  9997
2 58375  65.0000 108.0000 0000000   0.0000 288.0000 15.69614517    14
CTC2_L_00025010-04
1 58376U 26387RG  26070.40842593  .00000000  00000+0  00000-0 0  9994
2 58376  65.0000 108.0000 0000000   0.0000  18.0000 15.69614517    16
CTC2_L_00025011-01
1 58377U 25084ZS  26070.40842593  .00000000  00000+0  00000-0 0  9998
2 58377  65.0000 120.0000 0000000   0.0000 120.0000 15.69614517    15
CTC2_L_00025011-02
1 58378U 26407WO  26070.40842593  .00000000  00000+0  00000-0 0  9999
2 58378  65.0000 120.0000 0000000   0.0000 210.0000 15.69614517    16
CTC2_L_00025011-03
1 58379U 25128TY  26070.40842593  .00000000  00000+0  00000-0 0  9999
2 58379  65.0000 120.0000 0000000   0.0000 300.0000 15.69614517    17
CTC2_L_00025011-04
1 58380U 25861WD  26070.40842593  .00000000  00000+0  00000-0 0  9995
2 58380  65.0000 120.0000 0000000   0.0000  30.0000 15.69614517    19
CTC2_L_00025012-01
1 58381U 23896RK  26070.40842593  .00000000  00000+0  00000-0 0  9992
2 58381  65.0000 132.0000 0000000   0.0000 132.0000 15.69614517    16
CTC2_L_00025012-02
1 58382U 24329PO  26070.40842593  .00000000  00000+0  00000-0 0  9995
2 58382  65.0000 132.0000 0000000   0.0000 222.0000 15.69614517    17
CTC2_L_00025012-03
1 58383U 24294FM  26070.40842593  .00000000  00000+0  00000-0 0  9997
2 58383  65.0000 132.0000 0000000   0.0000 312.0000 15.69614517    18
CTC2_L_00025012-04
1 58384U 24663RS  26070.40842593  .00000000  00000+0  00000-0 0  9998
2 58384  65.0000 132.0000 0000000   0.0000  42.0000 15.69614517    19
CTC2_L_00025013-01
1 58385U 23551UX  26070.40842593  .00000000  00000+0  00000-0 0  9994
2 58385  65.0000 144.0000 0000000   0.0000 144.0000 15.69614517    16
CTC2_L_00025013-02
1 58386U 23089NT  26070.40842593  .00000000  00000+0  00000-0 0  9991
2 58386  65.0000 144.0000 0000000   0.0000 234.0000 15.69614517    17
CTC2_L_00025013-03
1 58387U 25298BZ  26070.40842593  .00000000  00000+0  00000-0 0  9996
2 58387  65.0000 144.0000 0000000   0.0000 324.0000 15.69614517    18
CTC2_L_00025013-04
1 58388U 22349YR  26070.40842593  .00000000  00000+0  00000-0 0  9991
2 58388  65.0000 144.0000 0000000   0.0000  54.0000 15.69614517    19
CTC2_L_00025014-01
1 58389U 26525VR  26070.40842593  .00000000  00000+0  00000-0 0  9992
2 58389  65.0000 156.0000 0000000   0.0000 156.0000 15.69614517    16
CTC2_L_00025014-02
1 58390U 25603AM  26070.40842593  .00000000  00000+0  00000-0 0  9990
2 58390  65.0000 156.0000 0000000   0.0000 246.0000 15.69614517    18
CTC2_L_00025014-03
1 58391U 25678XA  26070.40842593  .00000000  00000+0  00000-0 0  9993
2 58391  65.0000 156.0000 0000000   0.0000 336.0000 15.69614517    19
CTC2_L_00025014-04
1 58392U 25329XK  26070.40842593  .00000000  00000+0  00000-0 0  9997
2 58392  65.0000 156.0000 0000000   0.0000  66.0000 15.69614517    10
CTC2_L_00025015-01
1 58393U 22826NB  26070.40842593  .00000000  00000+0  00000-0 0  9997
2 58393  65.0000 168.0000 0000000   0.0000 168.0000 15.69614517    17
CTC2_L_00025015-02
1 58394U 24937YY  26070.40842593  .00000000  00000+0  00000-0 0  9993
2 58394  65.0000 168.0000 0000000   0.0000 258.0000 15.69614517    18
CTC2_L_00025015-03
1 58395U 23539SB  26070.40842593  .00000000  00000+0  00000-0 0  9991
2 58395  65.0000 168.0000 0000000   0.0000 348.0000 15.69614517    19
CTC2_L_00025015-04
1 58396U 23101BZ  26070.40842593  .00000000  00000+0  00000-0 0  9997
2 58396  65.0000 168.0000 0000000   0.0000  78.0000 15.69614517    10
CTC2_L_00025016-01
1 58397U 25169LJ  26070.40842593  .00000000  00000+0  00000-0 0  9994
2 58397  65.0000 180.0000 0000000   0.0000 180.0000 15.69614517    19
CTC2_L_00025016-02
1 58398U 23823NM  26070.40842593  .00000000  00000+0  00000-0 0  9990
2 58398  65.0000 180.0000 0000000   0.0000 270.0000 15.69614517    10
